{
  "links" : {
    "next" : "https://api.nasa.gov/neo/rest/v1/feed?start_date=2000-07-23&end_date=2000-07-23&detailed=true&api_key=t0TVs3DtDT2H8Oy2Zy8m2eVrNsAVKAexjcZXUckd",
    "prev" : "https://api.nasa.gov/neo/rest/v1/feed?start_date=2000-07-21&end_date=2000-07-21&detailed=true&api_key=t0TVs3DtDT2H8Oy2Zy8m2eVrNsAVKAexjcZXUckd",
    "self" : "https://api.nasa.gov/neo/rest/v1/feed?start_date=2000-07-22&end_date=2000-07-22&detailed=true&api_key=t0TVs3DtDT2H8Oy2Zy8m2eVrNsAVKAexjcZXUckd"
  },
  "element_count" : 6,
  "near_earth_objects" : {
    "2000-07-22" : [ {
      "links" : {
        "self" : "https://api.nasa.gov/neo/rest/v1/neo/3617157?api_key=t0TVs3DtDT2H8Oy2Zy8m2eVrNsAVKAexjcZXUckd"
      },
      "neo_reference_id" : "3617157",
      "name" : "(2012 VE37)",
      "nasa_jpl_url" : "http://ssd.jpl.nasa.gov/sbdb.cgi?sstr=3617157",
      "absolute_magnitude_h" : 20.7,
      "estimated_diameter" : {
        "kilometers" : {
          "estimated_diameter_min" : 0.1925550782,
          "estimated_diameter_max" : 0.4305662442
        },
        "meters" : {
          "estimated_diameter_min" : 192.5550781879,
          "estimated_diameter_max" : 430.566244241
        },
        "miles" : {
          "estimated_diameter_min" : 0.1196481415,
          "estimated_diameter_max" : 0.2675413778
        },
        "feet" : {
          "estimated_diameter_min" : 631.7424027221,
          "estimated_diameter_max" : 1412.6189567557
        }
      },
      "is_potentially_hazardous_asteroid" : false,
      "close_approach_data" : [ {
        "close_approach_date" : "2000-07-22",
        "epoch_date_close_approach" : 964249200000,
        "relative_velocity" : {
          "kilometers_per_second" : "13.8559990103",
          "kilometers_per_hour" : "49881.5964369713",
          "miles_per_hour" : "30994.4841860725"
        },
        "miss_distance" : {
          "astronomical" : "0.3338057901",
          "lunar" : "129.8504486084",
          "kilometers" : "49936636",
          "miles" : "31029188"
        },
        "orbiting_body" : "Earth"
      } ],
      "orbital_data" : {
        "orbit_id" : "23",
        "orbit_determination_date" : "2017-04-06 08:48:04",
        "orbit_uncertainty" : "2",
        "minimum_orbit_intersection" : ".150696",
        "jupiter_tisserand_invariant" : "5.722",
        "epoch_osculation" : "2458000.5",
        "eccentricity" : ".5368817156753035",
        "semi_major_axis" : "1.040160950836738",
        "inclination" : "17.46286399925969",
        "ascending_node_longitude" : "48.27373593708926",
        "orbital_period" : "387.4799592685064",
        "perihelion_distance" : ".4817175549730549",
        "perihelion_argument" : "149.8829951829548",
        "aphelion_distance" : "1.59860434670042",
        "perihelion_time" : "2457897.934949730724",
        "mean_anomaly" : "95.29116852041635",
        "mean_motion" : ".9290803082554678",
        "equinox" : "J2000"
      }
    }, {
      "links" : {
        "self" : "https://api.nasa.gov/neo/rest/v1/neo/3623682?api_key=t0TVs3DtDT2H8Oy2Zy8m2eVrNsAVKAexjcZXUckd"
      },
      "neo_reference_id" : "3623682",
      "name" : "(2013 AF53)",
      "nasa_jpl_url" : "http://ssd.jpl.nasa.gov/sbdb.cgi?sstr=3623682",
      "absolute_magnitude_h" : 26.5,
      "estimated_diameter" : {
        "kilometers" : {
          "estimated_diameter_min" : 0.0133215567,
          "estimated_diameter_max" : 0.0297879063
        },
        "meters" : {
          "estimated_diameter_min" : 13.3215566698,
          "estimated_diameter_max" : 29.7879062798
        },
        "miles" : {
          "estimated_diameter_min" : 0.008277629,
          "estimated_diameter_max" : 0.0185093411
        },
        "feet" : {
          "estimated_diameter_min" : 43.7058959846,
          "estimated_diameter_max" : 97.7293544391
        }
      },
      "is_potentially_hazardous_asteroid" : false,
      "close_approach_data" : [ {
        "close_approach_date" : "2000-07-22",
        "epoch_date_close_approach" : 964249200000,
        "relative_velocity" : {
          "kilometers_per_second" : "8.722789601",
          "kilometers_per_hour" : "31402.0425635258",
          "miles_per_hour" : "19512.0080584308"
        },
        "miss_distance" : {
          "astronomical" : "0.0871166888",
          "lunar" : "33.8883934021",
          "kilometers" : "13032471",
          "miles" : "8098002"
        },
        "orbiting_body" : "Earth"
      } ],
      "orbital_data" : {
        "orbit_id" : "7",
        "orbit_determination_date" : "2017-04-06 08:47:19",
        "orbit_uncertainty" : "7",
        "minimum_orbit_intersection" : ".0200872",
        "jupiter_tisserand_invariant" : "6.076",
        "epoch_osculation" : "2458000.5",
        "eccentricity" : ".1944668036041747",
        "semi_major_axis" : ".9928418174587027",
        "inclination" : "12.93289524955619",
        "ascending_node_longitude" : "107.308006136735",
        "orbital_period" : "361.342061746365",
        "perihelion_distance" : ".7997670427329493",
        "perihelion_argument" : "105.9025698631637",
        "aphelion_distance" : "1.185916592184456",
        "perihelion_time" : "2457830.558526909266",
        "mean_anomaly" : "169.3102929035901",
        "mean_motion" : ".9962858966933469",
        "equinox" : "J2000"
      }
    }, {
      "links" : {
        "self" : "https://api.nasa.gov/neo/rest/v1/neo/3297629?api_key=t0TVs3DtDT2H8Oy2Zy8m2eVrNsAVKAexjcZXUckd"
      },
      "neo_reference_id" : "3297629",
      "name" : "(2005 VL1)",
      "nasa_jpl_url" : "http://ssd.jpl.nasa.gov/sbdb.cgi?sstr=3297629",
      "absolute_magnitude_h" : 26.6,
      "estimated_diameter" : {
        "kilometers" : {
          "estimated_diameter_min" : 0.0127219879,
          "estimated_diameter_max" : 0.0284472297
        },
        "meters" : {
          "estimated_diameter_min" : 12.7219878539,
          "estimated_diameter_max" : 28.4472296503
        },
        "miles" : {
          "estimated_diameter_min" : 0.0079050743,
          "estimated_diameter_max" : 0.0176762835
        },
        "feet" : {
          "estimated_diameter_min" : 41.7388066307,
          "estimated_diameter_max" : 93.330808926
        }
      },
      "is_potentially_hazardous_asteroid" : false,
      "close_approach_data" : [ {
        "close_approach_date" : "2000-07-22",
        "epoch_date_close_approach" : 964249200000,
        "relative_velocity" : {
          "kilometers_per_second" : "8.8686833925",
          "kilometers_per_hour" : "31927.2602130122",
          "miles_per_hour" : "19838.3578806909"
        },
        "miss_distance" : {
          "astronomical" : "0.2949890062",
          "lunar" : "114.7507324219",
          "kilometers" : "44129728",
          "miles" : "27420942"
        },
        "orbiting_body" : "Earth"
      } ],
      "orbital_data" : {
        "orbit_id" : "19",
        "orbit_determination_date" : "2017-08-01 06:17:53",
        "orbit_uncertainty" : "0",
        "minimum_orbit_intersection" : "7.6176E-5",
        "jupiter_tisserand_invariant" : "6.641",
        "epoch_osculation" : "2458000.5",
        "eccentricity" : ".2242450120308154",
        "semi_major_axis" : ".8918499535206449",
        "inclination" : ".2367120538241126",
        "ascending_node_longitude" : "37.82348969237319",
        "orbital_period" : "307.6352647528209",
        "perihelion_distance" : ".6918570499637257",
        "perihelion_argument" : "228.137680829079",
        "aphelion_distance" : "1.091842857077564",
        "perihelion_time" : "2457883.439248170646",
        "mean_anomaly" : "136.9864755018505",
        "mean_motion" : "1.17021694599692",
        "equinox" : "J2000"
      }
    } ]
  }
}